PROPCUBE 1 (FLORA)      
1 40976U 15058N   26065.49801896  .00004849  00000+0  45833-3 0  9999
2 40976  64.7731 253.3484 0130297 101.4380 260.1399 14.88606847100973
SINOD-D 3               
1 40977U 15058P   26065.19558532  .00006574  00000+0  56106-3 0  9995
2 40977  64.7717 237.2229 0118710  99.5801 261.8749 14.93161481 99371
HORYU-4                 
1 41340U 16012D   26064.44225828  .00100607  00000+0  10940-2 0  9994
2 41340  30.9912  97.7021 0002347 105.9687 254.1224 15.62025345554441
RAVAN                   
1 41849U 16067B   26065.60139114  .00046449  00000+0  95418-3 0  9996
2 41849  98.0041 303.9978 0006576  16.8513 343.2951 15.45843669511800
CELTEE 1                
1 41850U 16067C   26065.05828917  .00006425  00000+0  31484-3 0  9996
2 41850  98.0817 284.5830 0000787 129.5260 230.6043 15.18533270510223
OPTICUBE 04             
1 41851U 16067D   26065.39383203  .00004005  00000+0  25589-3 0  9999
2 41851  98.0803 272.2715 0016950 104.3955 255.9155 15.09161487509663
AEROCUBE 8D             
1 41852U 16067E   26065.83679467  .00011728  00000+0  50448-3 0  9991
2 41852  98.0828 288.2482 0004536 118.6859 241.4832 15.22808576510483
AEROCUBE 8C             
1 41853U 16067F   26065.54909440  .00011559  00000+0  49390-3 0  9993
2 41853  98.0697 285.3026 0006580  62.3987 297.7915 15.23027103510439
CORVUS BC2              
1 42846U 17042X   26065.53732753  .00006376  00000+0  44551-3 0  9995
2 42846  97.3940 230.9909 0014337 103.1035 257.1793 15.05570733471610
CORVUS BC1              
1 42847U 17042Y   26065.41139778  .00005465  00000+0  38049-3 0  9994
2 42847  97.3969 231.6136 0013177  81.8177 278.4545 15.05778998471627
MAKERSAT 0              
1 43016U 17073D   26065.62375961  .00028918  00000+0  87775-3 0  9994
2 43016  97.4777 307.5930 0115650 276.8780  81.9313 15.27622603450783
SIRION PATHFINDER-2     
1 43759U 18099B   26065.08148471  .00006509  00000+0  36705-3 0  9990
2 43759  97.4390 116.5924 0007513 301.2937  58.7558 15.13484751397029
CORVUS BC4              
1 43767U 18099K   26065.54796835  .00006822  00000+0  40539-3 0  9991
2 43767  97.4205 111.5239 0008356   6.6149 353.5190 15.11572258396894
SPACEBEE-7              
1 43816U 18099BL  26065.79606148  .03613902  24477-5  19778-2 0  9996
2 43816  97.4307 152.6462 0009897 277.3214  82.6949 16.19527511398757
M2 PATHFINDER           
1 45727U 20037E   26065.48612777  .00004091  00000+0  29902-3 0  9996
2 45727  97.8146 255.5728 0012368 136.9280 223.2916 15.04148584310059
NETSAT-4                
1 46504U 20068U   26065.79742787  .00026416  00000+0  65773-3 0  9994
2 46504  97.8645  66.0818 0004982 350.5887   9.5263 15.40227676299991
