[{"OBJECT_NAME":"PROPCUBE 1 (FLORA)","OBJECT_ID":"2015-058N","EPOCH":"2026-03-06T11:57:08.838144","MEAN_MOTION":14.88606847,"ECCENTRICITY":0.01302974,"INCLINATION":64.7731,"RA_OF_ASC_NODE":253.3484,"ARG_OF_PERICENTER":101.438,"MEAN_ANOMALY":260.1399,"EPHEMERIS_TYPE":0,"CLASSIFICATION_TYPE":"U","NORAD_CAT_ID":40976,"ELEMENT_SET_NO":999,"REV_AT_EPOCH":10097,"BSTAR":0.00045833365,"MEAN_MOTION_DOT":4.849e-5,"MEAN_MOTION_DDOT":0},{"OBJECT_NAME":"SINOD-D 3","OBJECT_ID":"2015-058P","EPOCH":"2026-03-06T04:41:38.571648","MEAN_MOTION":14.93161481,"ECCENTRICITY":0.011871,"INCLINATION":64.7717,"RA_OF_ASC_NODE":237.2229,"ARG_OF_PERICENTER":99.5801,"MEAN_ANOMALY":261.8749,"EPHEMERIS_TYPE":0,"CLASSIFICATION_TYPE":"U","NORAD_CAT_ID":40977,"ELEMENT_SET_NO":999,"REV_AT_EPOCH":9937,"BSTAR":0.00056106472,"MEAN_MOTION_DOT":6.574e-5,"MEAN_MOTION_DDOT":0},{"OBJECT_NAME":"HORYU-4","OBJECT_ID":"2016-012D","EPOCH":"2026-03-05T10:36:51.115392","MEAN_MOTION":15.62025345,"ECCENTRICITY":0.0002347,"INCLINATION":30.9912,"RA_OF_ASC_NODE":97.7021,"ARG_OF_PERICENTER":105.9687,"MEAN_ANOMALY":254.1224,"EPHEMERIS_TYPE":0,"CLASSIFICATION_TYPE":"U","NORAD_CAT_ID":41340,"ELEMENT_SET_NO":999,"REV_AT_EPOCH":55444,"BSTAR":0.001094,"MEAN_MOTION_DOT":0.00100607,"MEAN_MOTION_DDOT":0},{"OBJECT_NAME":"RAVAN","OBJECT_ID":"2016-067B","EPOCH":"2026-03-06T14:26:00.194496","MEAN_MOTION":15.45843669,"ECCENTRICITY":0.00065765,"INCLINATION":98.0041,"RA_OF_ASC_NODE":303.9978,"ARG_OF_PERICENTER":16.8513,"MEAN_ANOMALY":343.2951,"EPHEMERIS_TYPE":0,"CLASSIFICATION_TYPE":"U","NORAD_CAT_ID":41849,"ELEMENT_SET_NO":999,"REV_AT_EPOCH":51180,"BSTAR":0.00095417887,"MEAN_MOTION_DOT":0.00046449,"MEAN_MOTION_DDOT":0},{"OBJECT_NAME":"CELTEE 1","OBJECT_ID":"2016-067C","EPOCH":"2026-03-06T01:23:56.184288","MEAN_MOTION":15.1853327,"ECCENTRICITY":7.877e-5,"INCLINATION":98.0817,"RA_OF_ASC_NODE":284.583,"ARG_OF_PERICENTER":129.526,"MEAN_ANOMALY":230.6043,"EPHEMERIS_TYPE":0,"CLASSIFICATION_TYPE":"U","NORAD_CAT_ID":41850,"ELEMENT_SET_NO":999,"REV_AT_EPOCH":51022,"BSTAR":0.00031484267,"MEAN_MOTION_DOT":6.425e-5,"MEAN_MOTION_DDOT":0},{"OBJECT_NAME":"OPTICUBE 04","OBJECT_ID":"2016-067D","EPOCH":"2026-03-06T09:27:07.087392","MEAN_MOTION":15.09161487,"ECCENTRICITY":0.00169505,"INCLINATION":98.0803,"RA_OF_ASC_NODE":272.2715,"ARG_OF_PERICENTER":104.3955,"MEAN_ANOMALY":255.9155,"EPHEMERIS_TYPE":0,"CLASSIFICATION_TYPE":"U","NORAD_CAT_ID":41851,"ELEMENT_SET_NO":999,"REV_AT_EPOCH":50966,"BSTAR":0.00025588716,"MEAN_MOTION_DOT":4.005e-5,"MEAN_MOTION_DDOT":0},{"OBJECT_NAME":"AEROCUBE 8D","OBJECT_ID":"2016-067E","EPOCH":"2026-03-06T20:04:59.059488","MEAN_MOTION":15.22808576,"ECCENTRICITY":0.0004536,"INCLINATION":98.0828,"RA_OF_ASC_NODE":288.2482,"ARG_OF_PERICENTER":118.6859,"MEAN_ANOMALY":241.4832,"EPHEMERIS_TYPE":0,"CLASSIFICATION_TYPE":"U","NORAD_CAT_ID":41852,"ELEMENT_SET_NO":999,"REV_AT_EPOCH":51048,"BSTAR":0.00050448,"MEAN_MOTION_DOT":0.00011728,"MEAN_MOTION_DDOT":0},{"OBJECT_NAME":"AEROCUBE 8C","OBJECT_ID":"2016-067F","EPOCH":"2026-03-06T13:10:41.756160","MEAN_MOTION":15.23027103,"ECCENTRICITY":0.00065804,"INCLINATION":98.0697,"RA_OF_ASC_NODE":285.3026,"ARG_OF_PERICENTER":62.3987,"MEAN_ANOMALY":297.7915,"EPHEMERIS_TYPE":0,"CLASSIFICATION_TYPE":"U","NORAD_CAT_ID":41853,"ELEMENT_SET_NO":999,"REV_AT_EPOCH":51043,"BSTAR":0.00049390475,"MEAN_MOTION_DOT":0.00011559,"MEAN_MOTION_DDOT":0},{"OBJECT_NAME":"CORVUS BC2","OBJECT_ID":"2017-042X","EPOCH":"2026-03-06T12:53:45.098592","MEAN_MOTION":15.05570733,"ECCENTRICITY":0.00143372,"INCLINATION":97.394,"RA_OF_ASC_NODE":230.9909,"ARG_OF_PERICENTER":103.1035,"MEAN_ANOMALY":257.1793,"EPHEMERIS_TYPE":0,"CLASSIFICATION_TYPE":"U","NORAD_CAT_ID":42846,"ELEMENT_SET_NO":999,"REV_AT_EPOCH":47161,"BSTAR":0.00044551486,"MEAN_MOTION_DOT":6.376e-5,"MEAN_MOTION_DDOT":0},{"OBJECT_NAME":"CORVUS BC1","OBJECT_ID":"2017-042Y","EPOCH":"2026-03-06T09:52:24.768192","MEAN_MOTION":15.05778998,"ECCENTRICITY":0.0013177,"INCLINATION":97.3969,"RA_OF_ASC_NODE":231.6136,"ARG_OF_PERICENTER":81.8177,"MEAN_ANOMALY":278.4545,"EPHEMERIS_TYPE":0,"CLASSIFICATION_TYPE":"U","NORAD_CAT_ID":42847,"ELEMENT_SET_NO":999,"REV_AT_EPOCH":47162,"BSTAR":0.000380485,"MEAN_MOTION_DOT":5.465e-5,"MEAN_MOTION_DDOT":0},{"OBJECT_NAME":"MAKERSAT 0","OBJECT_ID":"2017-073D","EPOCH":"2026-03-06T14:58:12.830304","MEAN_MOTION":15.27622603,"ECCENTRICITY":0.01156508,"INCLINATION":97.4777,"RA_OF_ASC_NODE":307.593,"ARG_OF_PERICENTER":276.878,"MEAN_ANOMALY":81.9313,"EPHEMERIS_TYPE":0,"CLASSIFICATION_TYPE":"U","NORAD_CAT_ID":43016,"ELEMENT_SET_NO":999,"REV_AT_EPOCH":45078,"BSTAR":0.00087775211,"MEAN_MOTION_DOT":0.00028918,"MEAN_MOTION_DDOT":0},{"OBJECT_NAME":"SIRION PATHFINDER-2","OBJECT_ID":"2018-099B","EPOCH":"2026-03-06T01:57:20.278944","MEAN_MOTION":15.13484751,"ECCENTRICITY":0.00075134,"INCLINATION":97.439,"RA_OF_ASC_NODE":116.5924,"ARG_OF_PERICENTER":301.2937,"MEAN_ANOMALY":58.7558,"EPHEMERIS_TYPE":0,"CLASSIFICATION_TYPE":"U","NORAD_CAT_ID":43759,"ELEMENT_SET_NO":999,"REV_AT_EPOCH":39702,"BSTAR":0.00036705073,"MEAN_MOTION_DOT":6.509e-5,"MEAN_MOTION_DDOT":0},{"OBJECT_NAME":"CORVUS BC4","OBJECT_ID":"2018-099K","EPOCH":"2026-03-06T13:09:04.465440","MEAN_MOTION":15.11572258,"ECCENTRICITY":0.00083564,"INCLINATION":97.4205,"RA_OF_ASC_NODE":111.5239,"ARG_OF_PERICENTER":6.6149,"MEAN_ANOMALY":353.519,"EPHEMERIS_TYPE":0,"CLASSIFICATION_TYPE":"U","NORAD_CAT_ID":43767,"ELEMENT_SET_NO":999,"REV_AT_EPOCH":39689,"BSTAR":0.00040538658,"MEAN_MOTION_DOT":6.822e-5,"MEAN_MOTION_DDOT":0},{"OBJECT_NAME":"SPACEBEE-7","OBJECT_ID":"2018-099BL","EPOCH":"2026-03-06T19:06:19.711872","MEAN_MOTION":16.19527511,"ECCENTRICITY":0.0009897,"INCLINATION":97.4307,"RA_OF_ASC_NODE":152.6462,"ARG_OF_PERICENTER":277.3214,"MEAN_ANOMALY":82.6949,"EPHEMERIS_TYPE":0,"CLASSIFICATION_TYPE":"U","NORAD_CAT_ID":43816,"ELEMENT_SET_NO":999,"REV_AT_EPOCH":39875,"BSTAR":0.0019778,"MEAN_MOTION_DOT":0.03613902,"MEAN_MOTION_DDOT":2.4477e-6},{"OBJECT_NAME":"M2 PATHFINDER","OBJECT_ID":"2020-037E","EPOCH":"2026-03-06T11:40:01.439328","MEAN_MOTION":15.04148584,"ECCENTRICITY":0.0012368,"INCLINATION":97.8146,"RA_OF_ASC_NODE":255.5728,"ARG_OF_PERICENTER":136.928,"MEAN_ANOMALY":223.2916,"EPHEMERIS_TYPE":0,"CLASSIFICATION_TYPE":"U","NORAD_CAT_ID":45727,"ELEMENT_SET_NO":999,"REV_AT_EPOCH":31005,"BSTAR":0.00029901502,"MEAN_MOTION_DOT":4.091e-5,"MEAN_MOTION_DDOT":0},{"OBJECT_NAME":"NETSAT-4","OBJECT_ID":"2020-068U","EPOCH":"2026-03-06T19:08:17.767968","MEAN_MOTION":15.40227676,"ECCENTRICITY":0.0004982,"INCLINATION":97.8645,"RA_OF_ASC_NODE":66.0818,"ARG_OF_PERICENTER":350.5887,"MEAN_ANOMALY":9.5263,"EPHEMERIS_TYPE":0,"CLASSIFICATION_TYPE":"U","NORAD_CAT_ID":46504,"ELEMENT_SET_NO":999,"REV_AT_EPOCH":29999,"BSTAR":0.00065773,"MEAN_MOTION_DOT":0.00026416,"MEAN_MOTION_DDOT":0}]
